[{"OBJECT_NAME":"STARLINK-5293","OBJECT_ID":"2023-010AC","EPOCH":"2026-03-09T16:42:54.798912","MEAN_MOTION":14.98333796,"ECCENTRICITY":0.00030534,"INCLINATION":70.0001,"RA_OF_ASC_NODE":44.5723,"ARG_OF_PERICENTER":264.6455,"MEAN_ANOMALY":95.4356,"EPHEMERIS_TYPE":0,"CLASSIFICATION_TYPE":"U","NORAD_CAT_ID":55295,"ELEMENT_SET_NO":999,"REV_AT_EPOCH":17278,"BSTAR":8.9593863e-5,"MEAN_MOTION_DOT":9.76e-6,"MEAN_MOTION_DDOT":0},{"OBJECT_NAME":"CZ-6A DEB","OBJECT_ID":"2022-151XN","EPOCH":"2026-03-09T03:53:00.747744","MEAN_MOTION":14.96908336,"ECCENTRICITY":0.00415985,"INCLINATION":98.5971,"RA_OF_ASC_NODE":139.8978,"ARG_OF_PERICENTER":176.4411,"MEAN_ANOMALY":183.7112,"EPHEMERIS_TYPE":0,"CLASSIFICATION_TYPE":"U","NORAD_CAT_ID":55516,"ELEMENT_SET_NO":999,"REV_AT_EPOCH":17147,"BSTAR":0.005138713,"MEAN_MOTION_DOT":0.00060444,"MEAN_MOTION_DDOT":0}]
